[{"OBJECT_NAME":"STARLINK-32794","OBJECT_ID":"2025-019R","EPOCH":"2026-03-09T01:46:50.688192","MEAN_MOTION":15.2759537,"ECCENTRICITY":6.306e-5,"INCLINATION":42.9983,"RA_OF_ASC_NODE":92.7239,"ARG_OF_PERICENTER":293.8588,"MEAN_ANOMALY":66.2197,"EPHEMERIS_TYPE":0,"CLASSIFICATION_TYPE":"U","NORAD_CAT_ID":62844,"ELEMENT_SET_NO":999,"REV_AT_EPOCH":6215,"BSTAR":0.0013181805,"MEAN_MOTION_DOT":0.00036207,"MEAN_MOTION_DDOT":0},{"OBJECT_NAME":"CZ-6A DEB","OBJECT_ID":"2024-140ADS","EPOCH":"2026-03-09T14:05:09.302208","MEAN_MOTION":15.17885306,"ECCENTRICITY":0.0073653,"INCLINATION":89.0442,"RA_OF_ASC_NODE":281.8925,"ARG_OF_PERICENTER":121.24,"MEAN_ANOMALY":239.6089,"EPHEMERIS_TYPE":0,"CLASSIFICATION_TYPE":"U","NORAD_CAT_ID":64628,"ELEMENT_SET_NO":999,"REV_AT_EPOCH":8034,"BSTAR":0.0029018,"MEAN_MOTION_DOT":0.00063537,"MEAN_MOTION_DDOT":0}]
